[{"OBJECT_NAME":"TIANQI-33","OBJECT_ID":"2024-245A","EPOCH":"2026-03-09T23:40:08.404896","MEAN_MOTION":13.99170744,"ECCENTRICITY":0.00094142,"INCLINATION":44.9842,"RA_OF_ASC_NODE":43.422,"ARG_OF_PERICENTER":270.4695,"MEAN_ANOMALY":89.5059,"EPHEMERIS_TYPE":0,"CLASSIFICATION_TYPE":"U","NORAD_CAT_ID":62365,"ELEMENT_SET_NO":999,"REV_AT_EPOCH":6246,"BSTAR":0.00013765247,"MEAN_MOTION_DOT":7.2e-7,"MEAN_MOTION_DDOT":0},{"OBJECT_NAME":"COSMOS 2251 DEB","OBJECT_ID":"1993-036TC","EPOCH":"2026-03-09T11:50:24.625248","MEAN_MOTION":14.00661753,"ECCENTRICITY":0.01903805,"INCLINATION":74.077,"RA_OF_ASC_NODE":104.0879,"ARG_OF_PERICENTER":153.9691,"MEAN_ANOMALY":207.1173,"EPHEMERIS_TYPE":0,"CLASSIFICATION_TYPE":"U","NORAD_CAT_ID":34459,"ELEMENT_SET_NO":999,"REV_AT_EPOCH":86926,"BSTAR":0.00036440283,"MEAN_MOTION_DOT":6.12e-6,"MEAN_MOTION_DDOT":0}]
